[Satellite]
VERSION=1.1
NAME=MOLNIYA 2-10
NICKNAME=MOLNIYA 2-10
TLE1=1 07376U 74056A   15053.05762548 -.00000748  00000-0  13424-2 0  9992
TLE2=2 07376  61.5754  84.3723 7458143 278.8241  10.9605  2.00637834296667
